# Made by eph2tle, compiled Dec 19 2021 16:19:15
# Run at Wed Dec 22 12:02:36 2021
#
#    The following TLEs (Two-Line Elements) were generated by fitting
# a numerically-integrated ephemeris,  based on the orbit given below,
# to the SDP4/SGP4 models.  Each TLE is good for the interval between
# its epoch and the epoch of the subsequent TLE (usually one day).
# The maximum deviation between the numerically integrated ephemerides
# and the TLE-based ephemeris, in kilometers,  is given for each TLE
# as the "worst residual".
#
#    This fitting is done using the 'eph2tle' code packaged with Find_Orb.
# The code has details on how the TLEs were computed :
#
#    https://github.com/Bill-Gray/find_orb/eph2tle.cpp
#
#    Be warned:  the error given is that between the numerically
# integrated ephems and the TLE model.  There will usually be at
# least some additional difference between the ephems and the actual
# motion of the satellite,  especially if the ephemerides are based
# on a short arc.  If the following orbital elements say something
# like "[based on] 10 observations 2015 Jan. 1-13",  and the TLEs
# are for 2015 May,  the extrapolation may be tenuous at best.  If
# your application requires a specific level of accuracy,  you may
# want to contact me;  I can give you some idea as to the fit of the
# underlying data (and possibly TLEs based on newer data).
#
#   You can usually find the underlying observational data,  and the
# fitted orbit,  residuals,  ephemerides,  and sometimes some comments
# about the object,  among the pages listed at
#
#    https://www.projectpluto.com/pluto/mpecs/pseudo.htm
#
#    Also,  if you use a TLE outside the "correct" time range (between
# its MJD and that of the next TLE),  all bets are off.  I've carefully
# computed and minimized the worst error over the "correct" time frame,
# but the ephemeris may (or may not) diverge wildly outside of it.
#
# Ephem range: 59580.000000 59945.000000 1.000000
# Created Wed Dec 22 12:02:34 2021
# Ephemeris start:  1 Jan 2022  0:00:00
# Ephemeris end:    1 Jan 2023  0:00:00
# Times are all TDT
# Positions/velocities are in equatorial J2000
# Orbital elements:  1977-093E = NORAD 32705 = Blok SO-L
#    Perigee 2021 Mar 20.601576 +/- 3.99e-6 TT = 14:26:16.1 (JD 2459294.101576)
# Epoch 2021 Mar 19.0 TT; AMR 0.0069825 +/- 0.000113 m^2/kg     Find_Orb
# M 211.161158056 +/- 0.00037         (J2000 equator)
# n  92.932739140 +/- 3.52e-6         Peri.  234.903382 +/- 0.00017
# a104189.5944 +/- 0.00263            Node   264.232200 +/- 0.00019
# e   0.89434393 +/- 1.58e-6          Incl.   43.671958 +/- 0.000057
# P5578.12m/3.874d           H 29.4   G  0.15   U  4.3
# q 11008.26279 +/- 0.165    Q 197370.9260 +/- 0.163
# 145 of 148 observations 2020 July 24-2021 Nov. 11; mean residual 4".814
#
# 1 NoradU COSPAR   Epoch.epoch     dn/dt/2  d2n/dt2/6 BSTAR    T El# C
# 2 NoradU Inclina RAAscNode Eccent  ArgPeri MeanAno  MeanMotion Rev# C

# Worst residual: 34.92 km
# MJD 59580.000000 (2022 Jan  1  0:00)
1977-093E = NORAD 32705 = Blok SO-L
1 32705U 77093E   22001.49919926  .00000000  00000-0  00000-0 0 14522
2 32705 034.1875 223.3162 8814520 263.6074 031.2108 00.25876858    06

# Worst residual: 3.48 km
# MJD 59581.000000 (2022 Jan  2  0:00)
1977-093E = NORAD 32705 = Blok SO-L
1 32705U 77093E   22002.49919926  .00000000  00000-0  00000-0 0 14523
2 32705 034.1377 222.9942 8818630 263.8500 124.0991 00.25824900    08

# Worst residual: 4.96 km
# MJD 59582.000000 (2022 Jan  3  0:00)
1977-093E = NORAD 32705 = Blok SO-L
1 32705U 77093E   22003.49919926  .00000000  00000-0  00000-0 0 14524
2 32705 034.1376 222.9415 8815621 263.8783 217.1695 00.25820453    06

# Worst residual: 5.75 km
# MJD 59583.000000 (2022 Jan  4  0:00)
1977-093E = NORAD 32705 = Blok SO-L
1 32705U 77093E   22004.49919926  .00000000  00000-0  00000-0 0 14525
2 32705 034.1274 222.8502 8815189 263.9415 310.2250 00.25819561    01

# Worst residual: 8.97 km
# MJD 59584.000000 (2022 Jan  5  0:00)
1977-093E = NORAD 32705 = Blok SO-L
1 32705U 77093E   22005.49919926  .00000000  00000-0  00000-0 0 14526
2 32705 034.1098 222.5470 8813538 264.1781 043.2393 00.25817326    09

# Worst residual: 4.43 km
# MJD 59585.000000 (2022 Jan  6  0:00)
1977-093E = NORAD 32705 = Blok SO-L
1 32705U 77093E   22006.49919926  .00000000  00000-0  00000-0 0 14527
2 32705 034.1048 222.4129 8812608 264.2716 136.2588 00.25816631    07

# Worst residual: 3.13 km
# MJD 59586.000000 (2022 Jan  7  0:00)
1977-093E = NORAD 32705 = Blok SO-L
1 32705U 77093E   22007.49919926  .00000000  00000-0  00000-0 0 14528
2 32705 034.1044 222.3714 8812678 264.2808 229.3714 00.25820035    09

# Worst residual: 23.98 km
# MJD 59587.000000 (2022 Jan  8  0:00)
1977-093E = NORAD 32705 = Blok SO-L
1 32705U 77093E   22008.49919926  .00000000  00000-0  00000-0 0 14529
2 32705 034.0994 222.1785 8808173 264.4176 322.3252 00.25840004    02

# Worst residual: 11.43 km
# MJD 59588.000000 (2022 Jan  9  0:00)
1977-093E = NORAD 32705 = Blok SO-L
1 32705U 77093E   22009.49919926  .00000000  00000-0  00000-0 0 14520
2 32705 034.0926 221.9130 8807528 264.6019 055.3476 00.25810598    05

# Worst residual: 5.77 km
# MJD 59589.000000 (2022 Jan 10  0:00)
1977-093E = NORAD 32705 = Blok SO-L
1 32705U 77093E   22010.49919926  .00000000  00000-0  00000-0 0 14522
2 32705 034.0910 221.7802 8810444 264.6815 148.2947 00.25811057    03

# Worst residual: 3.04 km
# MJD 59590.000000 (2022 Jan 11  0:00)
1977-093E = NORAD 32705 = Blok SO-L
1 32705U 77093E   22011.49919926  .00000000  00000-0  00000-0 0 14523
2 32705 034.0852 221.6624 8813638 264.7668 241.3154 00.25820425    08

# Worst residual: 24.31 km
# MJD 59591.000000 (2022 Jan 12  0:00)
1977-093E = NORAD 32705 = Blok SO-L
1 32705U 77093E   22012.49919926  .00000000  00000-0  00000-0 0 14524
2 32705 034.0819 221.4799 8811022 264.9155 334.2802 00.25853197    04

# Worst residual: 17.59 km
# MJD 59592.000000 (2022 Jan 13  0:00)
1977-093E = NORAD 32705 = Blok SO-L
1 32705U 77093E   22013.49919926  .00000000  00000-0  00000-0 0 14525
2 32705 034.0594 221.2452 8812806 265.0665 067.3347 00.25831201    07

# Worst residual: 3.32 km
# MJD 59593.000000 (2022 Jan 14  0:00)
1977-093E = NORAD 32705 = Blok SO-L
1 32705U 77093E   22014.49919926  .00000000  00000-0  00000-0 0 14526
2 32705 034.0494 221.0536 8812631 265.2363 160.1587 00.25806280    07

# Worst residual: 3.03 km
# MJD 59594.000000 (2022 Jan 15  0:00)
1977-093E = NORAD 32705 = Blok SO-L
1 32705U 77093E   22015.49919926  .00000000  00000-0  00000-0 0 14527
2 32705 034.0432 220.9456 8811530 265.3218 253.0725 00.25808542    04

# Worst residual: 13.73 km
# MJD 59595.000000 (2022 Jan 16  0:00)
1977-093E = NORAD 32705 = Blok SO-L
1 32705U 77093E   22016.49919926  .00000000  00000-0  00000-0 0 14528
2 32705 034.0510 220.7247 8810272 265.5134 346.0331 00.25837532    05

# Worst residual: 7.75 km
# MJD 59596.000000 (2022 Jan 17  0:00)
1977-093E = NORAD 32705 = Blok SO-L
1 32705U 77093E   22017.49919926  .00000000  00000-0  00000-0 0 14529
2 32705 034.0109 220.4656 8810753 265.7043 079.0384 00.25818318    07

# Worst residual: 6.25 km
# MJD 59597.000000 (2022 Jan 18  0:00)
1977-093E = NORAD 32705 = Blok SO-L
1 32705U 77093E   22018.49919926  .00000000  00000-0  00000-0 0 14520
2 32705 034.0147 220.3874 8808664 265.7794 171.8911 00.25801943    04

# Worst residual: 5.76 km
# MJD 59598.000000 (2022 Jan 19  0:00)
1977-093E = NORAD 32705 = Blok SO-L
1 32705U 77093E   22019.49919926  .00000000  00000-0  00000-0 0 14521
2 32705 034.0077 220.3888 8807785 265.7795 264.7678 00.25808173    09

# Worst residual: 8.52 km
# MJD 59599.000000 (2022 Jan 20  0:00)
1977-093E = NORAD 32705 = Blok SO-L
1 32705U 77093E   22020.49919926  .00000000  00000-0  00000-0 0 14523
2 32705 034.0202 220.1576 8805620 265.9624 357.7323 00.25829340    09

# Worst residual: 1.92 km
# MJD 59600.000000 (2022 Jan 21  0:00)
1977-093E = NORAD 32705 = Blok SO-L
1 32705U 77093E   22021.49919926  .00000000  00000-0  00000-0 0 14524
2 32705 033.9829 219.9136 8803711 266.1776 090.6955 00.25801207    06

# Worst residual: 4.58 km
# MJD 59601.000000 (2022 Jan 22  0:00)
1977-093E = NORAD 32705 = Blok SO-L
1 32705U 77093E   22022.49919926  .00000000  00000-0  00000-0 0 14525
2 32705 033.9866 219.8461 8803395 266.2235 183.6114 00.25801008    05

# Worst residual: 8.38 km
# MJD 59602.000000 (2022 Jan 23  0:00)
1977-093E = NORAD 32705 = Blok SO-L
1 32705U 77093E   22023.49919926  .00000000  00000-0  00000-0 0 14526
2 32705 033.9791 219.7285 8803513 266.3363 276.4297 00.25819248    08

# Worst residual: 17.27 km
# MJD 59603.000000 (2022 Jan 24  0:00)
1977-093E = NORAD 32705 = Blok SO-L
1 32705U 77093E   22024.49919926  .00000000  00000-0  00000-0 0 14527
2 32705 033.9904 219.4959 8797220 266.4978 009.4208 00.25882802    01

# Worst residual: 3.32 km
# MJD 59604.000000 (2022 Jan 25  0:00)
1977-093E = NORAD 32705 = Blok SO-L
1 32705U 77093E   22025.49919926  .00000000  00000-0  00000-0 0 14528
2 32705 033.9723 219.2922 8798159 266.6685 102.4003 00.25822110    00

# Worst residual: 4.70 km
# MJD 59605.000000 (2022 Jan 26  0:00)
1977-093E = NORAD 32705 = Blok SO-L
1 32705U 77093E   22026.49919926  .00000000  00000-0  00000-0 0 14529
2 32705 033.9715 219.1870 8793474 266.7586 195.3446 00.25811196    02

# Worst residual: 8.08 km
# MJD 59606.000000 (2022 Jan 27  0:00)
1977-093E = NORAD 32705 = Blok SO-L
1 32705U 77093E   22027.49919926  .00000000  00000-0  00000-0 0 14520
2 32705 033.9605 219.1309 8787461 266.7908 288.2284 00.25814179    00

# Worst residual: 25.33 km
# MJD 59607.000000 (2022 Jan 28  0:00)
1977-093E = NORAD 32705 = Blok SO-L
1 32705U 77093E   22028.49919926  .00000000  00000-0  00000-0 0 14521
2 32705 033.9621 218.9432 8781667 266.9098 021.2492 00.25874731    02

# Worst residual: 3.24 km
# MJD 59608.000000 (2022 Jan 29  0:00)
1977-093E = NORAD 32705 = Blok SO-L
1 32705U 77093E   22029.49919926  .00000000  00000-0  00000-0 0 14522
2 32705 033.9239 218.6660 8785033 267.1117 114.1854 00.25824811    01
